[{"OBJECT_NAME":"STARLINK-30512","OBJECT_ID":"2023-151N","EPOCH":"2026-03-09T22:00:01.999584","MEAN_MOTION":15.27542701,"ECCENTRICITY":0.00014616,"INCLINATION":43.0006,"RA_OF_ASC_NODE":334.5386,"ARG_OF_PERICENTER":259.1867,"MEAN_ANOMALY":60.3165,"EPHEMERIS_TYPE":0,"CLASSIFICATION_TYPE":"U","NORAD_CAT_ID":57976,"ELEMENT_SET_NO":999,"REV_AT_EPOCH":578,"BSTAR":-0.00032128413,"MEAN_MOTION_DOT":-9.082e-5,"MEAN_MOTION_DDOT":0},{"OBJECT_NAME":"CZ-4C R\/B","OBJECT_ID":"2010-009D","EPOCH":"2026-03-09T22:19:23.688192","MEAN_MOTION":13.72984009,"ECCENTRICITY":0.06900973,"INCLINATION":63.3888,"RA_OF_ASC_NODE":313.7289,"ARG_OF_PERICENTER":2.6464,"MEAN_ANOMALY":357.7935,"EPHEMERIS_TYPE":0,"CLASSIFICATION_TYPE":"U","NORAD_CAT_ID":36416,"ELEMENT_SET_NO":999,"REV_AT_EPOCH":80095,"BSTAR":0.00032412476,"MEAN_MOTION_DOT":1.649e-5,"MEAN_MOTION_DDOT":0}]
